{
  "type": "FeatureCollection",
  "features": [
    {
      "type": "Feature",
      "properties": {
        "norad_id": 66484,
        "name": "STARLINK-35371",
        "group": "last-30-days",
        "lat": 41.55807409281138,
        "lon": 174.27682976583122,
        "alt_km": 409.65874038484344,
        "timestamp": "2025-12-07T09:35:08.569969+00:00",
        "meta_object_name": "STARLINK-35371",
        "meta_object_id": "2025-262AE",
        "meta_epoch": "2025-12-07T00:00:02.000160",
        "meta_mean_motion": 15.50644159,
        "meta_eccentricity": 0.00016357,
        "meta_inclination": 43.0007,
        "meta_ra_of_asc_node": 104.5593,
        "meta_arg_of_pericenter": 269.7453,
        "meta_mean_anomaly": 94.8767,
        "meta_ephemeris_type": 0,
        "meta_classification_type": "U",
        "meta_norad_cat_id": 66484,
        "meta_element_set_no": 999,
        "meta_rev_at_epoch": 471,
        "meta_bstar": -0.002557744,
        "meta_mean_motion_dot": -0.00147938,
        "meta_mean_motion_ddot": 0,
        "tle_line1": "1 66484U 25262AE  25341.00002315 -.00147938  00000+0 -25577-2 0  9992",
        "tle_line2": "2 66484  43.0007 104.5593 0001635 269.7453  94.8767 15.50644159  4715"
      },
      "geometry": {
        "type": "Point",
        "coordinates": [
          174.27682976583122,
          41.55807409281138
        ]
      }
    },
    {
      "type": "Feature",
      "properties": {
        "norad_id": 66485,
        "name": "STARLINK-34774",
        "group": "last-30-days",
        "lat": -31.24148427506807,
        "lon": 115.80194334777106,
        "alt_km": 405.7874654152274,
        "timestamp": "2025-12-07T09:35:08.569980+00:00",
        "meta_object_name": "STARLINK-34774",
        "meta_object_id": "2025-263A",
        "meta_epoch": "2025-12-07T00:00:02.000160",
        "meta_mean_motion": 15.56101443,
        "meta_eccentricity": 0.0001542,
        "meta_inclination": 42.9999,
        "meta_ra_of_asc_node": 158.7704,
        "meta_arg_of_pericenter": 268.196,
        "meta_mean_anomaly": 323.5877,
        "meta_ephemeris_type": 0,
        "meta_classification_type": "U",
        "meta_norad_cat_id": 66485,
        "meta_element_set_no": 999,
        "meta_rev_at_epoch": 471,
        "meta_bstar": -0.031906652,
        "meta_mean_motion_dot": -0.02042769,
        "meta_mean_motion_ddot": 0,
        "tle_line1": "1 66485U 25263A   25341.00002315 -.02042769  00000+0 -31907-1 0  9995",
        "tle_line2": "2 66485  42.9999 158.7704 0001542 268.1960 323.5877 15.56101443  4716"
      },
      "geometry": {
        "type": "Point",
        "coordinates": [
          115.80194334777106,
          -31.24148427506807
        ]
      }
    },
    {
      "type": "Feature",
      "properties": {
        "norad_id": 66486,
        "name": "STARLINK-34844",
        "group": "last-30-days",
        "lat": -30.23610269362316,
        "lon": 117.69343515102493,
        "alt_km": 405.800527432737,
        "timestamp": "2025-12-07T09:35:08.569990+00:00",
        "meta_object_name": "STARLINK-34844",
        "meta_object_id": "2025-263B",
        "meta_epoch": "2025-12-07T00:00:02.000160",
        "meta_mean_motion": 15.56103092,
        "meta_eccentricity": 0.00014968,
        "meta_inclination": 42.9998,
        "meta_ra_of_asc_node": 158.7646,
        "meta_arg_of_pericenter": 266.715,
        "meta_mean_anomaly": 326.985,
        "meta_ephemeris_type": 0,
        "meta_classification_type": "U",
        "meta_norad_cat_id": 66486,
        "meta_element_set_no": 999,
        "meta_rev_at_epoch": 466,
        "meta_bstar": -0.031940792,
        "meta_mean_motion_dot": -0.02044804,
        "meta_mean_motion_ddot": 0,
        "tle_line1": "1 66486U 25263B   25341.00002315 -.02044804  00000+0 -31941-1 0  9996",
        "tle_line2": "2 66486  42.9998 158.7646 0001496 266.7150 326.9850 15.56103092  4668"
      },
      "geometry": {
        "type": "Point",
        "coordinates": [
          117.69343515102493,
          -30.23610269362316
        ]
      }
    },
    {
      "type": "Feature",
      "properties": {
        "norad_id": 66487,
        "name": "STARLINK-34733",
        "group": "last-30-days",
        "lat": -29.205004094386567,
        "lon": 119.54595485573822,
        "alt_km": 405.69895180894946,
        "timestamp": "2025-12-07T09:35:08.570002+00:00",
        "meta_object_name": "STARLINK-34733",
        "meta_object_id": "2025-263C",
        "meta_epoch": "2025-12-07T00:00:02.000160",
        "meta_mean_motion": 15.56105124,
        "meta_eccentricity": 0.00014924,
        "meta_inclination": 42.9997,
        "meta_ra_of_asc_node": 158.7606,
        "meta_arg_of_pericenter": 270.6481,
        "meta_mean_anomaly": 324.9672,
        "meta_ephemeris_type": 0,
        "meta_classification_type": "U",
        "meta_norad_cat_id": 66487,
        "meta_element_set_no": 999,
        "meta_rev_at_epoch": 471,
        "meta_bstar": -0.031979964,
        "meta_mean_motion_dot": -0.0204718,
        "meta_mean_motion_ddot": 0,
        "tle_line1": "1 66487U 25263C   25341.00002315 -.02047180  00000+0 -31980-1 0  9990",
        "tle_line2": "2 66487  42.9997 158.7606 0001492 270.6481 324.9672 15.56105124  4715"
      },
      "geometry": {
        "type": "Point",
        "coordinates": [
          119.54595485573822,
          -29.205004094386567
        ]
      }
    },
    {
      "type": "Feature",
      "properties": {
        "norad_id": 66488,
        "name": "STARLINK-35515",
        "group": "last-30-days",
        "lat": -28.1470300939671,
        "lon": 121.36303479087476,
        "alt_km": 405.7218843862438,
        "timestamp": "2025-12-07T09:35:08.570013+00:00",
        "meta_object_name": "STARLINK-35515",
        "meta_object_id": "2025-263D",
        "meta_epoch": "2025-12-07T00:00:02.000160",
        "meta_mean_motion": 15.56105937,
        "meta_eccentricity": 0.00014849,
        "meta_inclination": 42.9998,
        "meta_ra_of_asc_node": 158.7553,
        "meta_arg_of_pericenter": 266.9391,
        "meta_mean_anomaly": 330.5933,
        "meta_ephemeris_type": 0,
        "meta_classification_type": "U",
        "meta_norad_cat_id": 66488,
        "meta_element_set_no": 999,
        "meta_rev_at_epoch": 471,
        "meta_bstar": -0.031993784,
        "meta_mean_motion_dot": -0.02048021,
        "meta_mean_motion_ddot": 0,
        "tle_line1": "1 66488U 25263D   25341.00002315 -.02048021  00000+0 -31994-1 0  9991",
        "tle_line2": "2 66488  42.9998 158.7553 0001484 266.9391 330.5933 15.56105937  4712"
      },
      "geometry": {
        "type": "Point",
        "coordinates": [
          121.36303479087476,
          -28.1470300939671
        ]
      }
    },
    {
      "type": "Feature",
      "properties": {
        "norad_id": 66489,
        "name": "STARLINK-35696",
        "group": "last-30-days",
        "lat": -27.06597808235233,
        "lon": 123.14333716345011,
        "alt_km": 405.56149042861034,
        "timestamp": "2025-12-07T09:35:08.570024+00:00",
        "meta_object_name": "STARLINK-35696",
        "meta_object_id": "2025-263E",
        "meta_epoch": "2025-12-07T00:00:02.000160",
        "meta_mean_motion": 15.56098648,
        "meta_eccentricity": 0.00016955,
        "meta_inclination": 42.9998,
        "meta_ra_of_asc_node": 158.7503,
        "meta_arg_of_pericenter": 267.8647,
        "meta_mean_anomaly": 331.5887,
        "meta_ephemeris_type": 0,
        "meta_classification_type": "U",
        "meta_norad_cat_id": 66489,
        "meta_element_set_no": 999,
        "meta_rev_at_epoch": 471,
        "meta_bstar": -0.031863487,
        "meta_mean_motion_dot": -0.02040209,
        "meta_mean_motion_ddot": 0,
        "tle_line1": "1 66489U 25263E   25341.00002315 -.02040209  00000+0 -31863-1 0  9997",
        "tle_line2": "2 66489  42.9998 158.7503 0001695 267.8647 331.5887 15.56098648  4715"
      },
      "geometry": {
        "type": "Point",
        "coordinates": [
          123.14333716345011,
          -27.06597808235233
        ]
      }
    },
    {
      "type": "Feature",
      "properties": {
        "norad_id": 66490,
        "name": "STARLINK-35693",
        "group": "last-30-days",
        "lat": -25.96282113117097,
        "lon": 124.88928187871767,
        "alt_km": 405.6440319179965,
        "timestamp": "2025-12-07T09:35:08.570035+00:00",
        "meta_object_name": "STARLINK-35693",
        "meta_object_id": "2025-263F",
        "meta_epoch": "2025-12-07T00:00:02.000160",
        "meta_mean_motion": 15.56101679,
        "meta_eccentricity": 0.00015186,
        "meta_inclination": 42.9998,
        "meta_ra_of_asc_node": 158.7454,
        "meta_arg_of_pericenter": 265.2429,
        "meta_mean_anomaly": 336.1263,
        "meta_ephemeris_type": 0,
        "meta_classification_type": "U",
        "meta_norad_cat_id": 66490,
        "meta_element_set_no": 999,
        "meta_rev_at_epoch": 471,
        "meta_bstar": -0.031905579,
        "meta_mean_motion_dot": -0.02042709,
        "meta_mean_motion_ddot": 0,
        "tle_line1": "1 66490U 25263F   25341.00002315 -.02042709  00000+0 -31906-1 0  9994",
        "tle_line2": "2 66490  42.9998 158.7454 0001518 265.2429 336.1263 15.56101679  4714"
      },
      "geometry": {
        "type": "Point",
        "coordinates": [
          124.88928187871767,
          -25.96282113117097
        ]
      }
    }
  ]
}